STARLINK-36238          
1 68563U 26070X   26108.25003472 -.00078844  00000+0 -39884-3 0  9990
2 68563  53.1589 185.9483 0000795  94.9628 232.4576 15.80912848  3691
STARLINK-37008          
1 68564U 26070Y   26108.25003472 -.00085563  00000+0 -43265-3 0  9995
2 68564  53.1608 185.9308 0000615  60.7556 275.1583 15.80953980  3742
STARLINK-37161          
1 68565U 26070Z   26108.25003472  .00010563  00000+0  56990-4 0  9992
2 68565  53.1608 185.9216 0001184  92.6104 247.6320 15.80873270  3742
STARLINK-37212          
1 68566U 26070AA  26108.25003472 -.00026964  00000+0 -13339-3 0  9996
2 68566  53.1608 185.9123 0001070  90.8925 253.6177 15.80891054  3742
STARLINK-37261          
1 68567U 26070AB  26108.25003472 -.00130116  00000+0 -66262-3 0  9995
2 68567  53.1588 185.9038 0001043 101.2717 247.4530 15.80971508  3748
STARLINK-37283          
1 68568U 26070AC  26108.00004630  .00066916  00000+0  34049-3 0  9998
2 68568  53.1591 187.5762 0001046  78.4908  84.1358 15.80838078  3709
STARLINK-37256          
1 68569U 26070AD  26108.00004630  .00029250  00000+0  15135-3 0  9994
2 68569  53.1589 187.5848 0001035  93.2190  65.1294 15.80856338  3705
STARLINK-37228          
1 68570U 26070AE  26108.00004630  .00080668  00000+0  40917-3 0  9992
2 68570  53.1589 187.5675 0001104  76.1108  90.7864 15.80833478  3708
MERIDIAN-M 21L          
1 68571U 26071A   26104.39797982  .00000489  00000+0  80352-2 0  9990
2 68571  62.7790 237.3403 7234646 284.9939  10.8160  1.98596107   235
KUIPER-00131            
1 68573U 26072A   26107.95641882 -.00204929  00000+0 -57646-2 0  9992
2 68573  51.8683 108.2416 0007540 147.8928 212.2519 15.36699012  2117
KUIPER-00189            
1 68574U 26072B   26108.25003472 -.00600855  00000+0 -26311-1 0  9996
2 68574  51.8807 107.0311 0000932 101.7974 321.1610 15.23854898  2657
KUIPER-00192            
1 68575U 26072C   26107.88712232  .00011542  00000+0  31737-3 0  9993
2 68575  51.8736 108.5275 0005027 140.1870 219.9486 15.37647406  2101
KUIPER-00193            
1 68576U 26072D   26107.88576528  .00012034  00000+0  33006-3 0  9998
2 68576  51.8739 108.5181 0003314 126.7967 233.3324 15.37687211  2104
KUIPER-00194            
1 68577U 26072E   26107.88236799  .00015049  00000+0  40456-3 0  9998
2 68577  51.8752 108.4931 0002849 124.4163 235.7093 15.38101739  2103
KUIPER-00229            
1 68578U 26072F   26107.89286148  .00010572  00000+0  29817-3 0  9997
2 68578  51.8694 108.5657 0007530 146.1324 214.0145 15.36942324  2106
